CCSDS_OMM_VERS,COMMENT,CREATION_DATE,ORIGINATOR,OBJECT_NAME,OBJECT_ID,CENTER_NAME,REF_FRAME,TIME_SYSTEM,MEAN_ELEMENT_THEORY,EPOCH,MEAN_MOTION,ECCENTRICITY,INCLINATION,RA_OF_ASC_NODE,ARG_OF_PERICENTER,MEAN_ANOMALY,EPHEMERIS_TYPE,CLASSIFICATION_TYPE,NORAD_CAT_ID,ELEMENT_SET_NO,REV_AT_EPOCH,BSTAR,MEAN_MOTION_DOT,MEAN_MOTION_DDOT,SEMIMAJOR_AXIS,PERIOD,APOAPSIS,PERIAPSIS,OBJECT_TYPE,RCS_SIZE,COUNTRY_CODE,LAUNCH_DATE,SITE,DECAY_DATE,FILE,GP_ID,TLE_LINE0,TLE_LINE1,TLE_LINE2,,,,,,,AVG_ALTITUDE,,AVG_VELOCITY
2,GENERATED VIA SPACE-TRACK.ORG API,2022-06-03T07:16:12,18 SPCS,OBJECT M,2020-079M,EARTH,TEME,UTC,SGP4,2022-06-03T04:55:20.138016,15.39901735,0.0005703,97.2015,226.508,39.2618,320.9041,0,U,46838,999,8804,0.00025066,9.89E-05,0,6824.537,93.512,450.294,442.51,UNKNOWN,MEDIUM,PRC,11/6/2020,TSC,,3478490,205226837,0 OBJECT M,1 46838U 20079M   22154.20509419  .00009894  00000-0  25066-3 0  9993,2 46838  97.2015 226.5080 0005703  39.2618 320.9041 15.39901735 88044,,,,,,,454.537,,7.642445023
2,GENERATED VIA SPACE-TRACK.ORG API,2022-06-03T07:06:16,18 SPCS,OBJECT N,2020-079N,EARTH,TEME,UTC,SGP4,2022-06-03T03:51:28.095840,15.4149199,0.0005486,97.198,226.4469,38.1369,46.3858,0,U,46839,999,8804,0.00045035,0.00018822,0,6819.842,93.416,445.449,437.966,UNKNOWN,MEDIUM,PRC,11/6/2020,TSC,,3478394,205224965,0 OBJECT N,1 46839U 20079N   22154.16074185  .00018822  00000-0  45035-3 0  9995,2 46839  97.1980 226.4469 0005486  38.1369  46.3858 15.41491990 88049,,,,,,,449.842,,7.645075223
2,GENERATED VIA SPACE-TRACK.ORG API,2022-06-03T07:16:12,18 SPCS,NUSAT-16 LISE,2020-079P,EARTH,TEME,UTC,SGP4,2022-06-03T03:41:24.132192,15.37434073,0.000584,97.2068,225.3834,34.4681,49.2896,0,U,46840,999,8794,0.00032042,0.00011691,0,6831.837,93.663,457.692,449.712,PAYLOAD,MEDIUM,ARGN,11/6/2020,TSC,,3478491,205226859,0 NUSAT-16 LISE,1 46840U 20079P   22154.15375153  .00011691  00000-0  32042-3 0  9996,2 46840  97.2068 225.3834 0005840  34.4681  49.2896 15.37434073 87949,,,,,,,461.837,,7.638360853
2,GENERATED VIA SPACE-TRACK.ORG API,2022-06-03T07:16:12,18 SPCS,TIANQI-11,2020-080A,EARTH,TEME,UTC,SGP4,2022-06-03T03:53:54.670848,15.30093902,0.0011896,97.4621,279.3165,81.7106,18.9649,0,U,46904,999,8734,0.00036637,0.00010619,0,6853.669,94.112,483.687,467.381,PAYLOAD,MEDIUM,PRC,11/7/2020,JSC,,3478491,205226858,0 TIANQI-11,1 46904U 20080A   22154.16243832  .00010619  00000-0  36637-3 0  9991,2 46904  97.4621 279.3165 0011896  81.7106  18.9649 15.30093902 87346,,,,,,,483.669,,7.626185352
2,GENERATED VIA SPACE-TRACK.ORG API,2022-06-03T02:31:39,18 SPCS,RISAT-2BR2,2020-081A,EARTH,TEME,UTC,SGP4,2022-06-02T17:29:55.633632,14.98405562,0.0008233,36.9035,319.0235,265.3911,94.5875,0,U,46905,999,8587,0.00015594,1.82E-05,0,6949.959,96.102,577.546,566.102,PAYLOAD,LARGE,IND,11/7/2020,SRI,,3477983,205211717,0 RISAT-2BR2,1 46905U 20081A   22153.72911613  .00001820  00000-0  15594-3 0  9996,2 46905  36.9035 319.0235 0008233 265.3911  94.5875 14.98405562 85878,,,,,,,579.959,,7.573171612
2,GENERATED VIA SPACE-TRACK.ORG API,2022-06-03T02:31:39,18 SPCS,KSM1-C,2020-081B,EARTH,TEME,UTC,SGP4,2022-06-02T20:28:27.877152,15.00552752,0.0005649,36.896,310.6942,274.5808,85.4287,0,U,46906,999,8589,0.00011889,1.45E-05,0,6943.328,95.965,569.115,561.27,PAYLOAD,MEDIUM,LUXE,11/7/2020,SRI,,3477983,205210967,0 KSM1-C,1 46906U 20081B   22153.85310043  .00001451  00000-0  11889-3 0  9994,2 46906  36.8960 310.6942 0005649 274.5808  85.4287 15.00552752 85898,,,,,,,573.328,,7.576787005
2,GENERATED VIA SPACE-TRACK.ORG API,2022-06-03T07:16:12,18 SPCS,KSM1-D,2020-081C,EARTH,TEME,UTC,SGP4,2022-06-02T20:27:52.766784,15.00560537,0.0007531,36.9006,310.8246,297.83,62.1677,0,U,46907,999,8597,0.00011879,1.45E-05,0,6943.304,95.964,570.398,559.94,PAYLOAD,MEDIUM,LUXE,11/7/2020,SRI,,3478490,205227234,0 KSM1-D,1 46907U 20081C   22153.85269406  .00001450  00000-0  11879-3 0  9999,2 46907  36.9006 310.8246 0007531 297.8300  62.1677 15.00560537 85971,,,,,,,573.304,,7.5768001
2,GENERATED VIA SPACE-TRACK.ORG API,2022-06-03T02:31:39,18 SPCS,LEMUR 2 OZARAK,2020-081D,EARTH,TEME,UTC,SGP4,2022-06-02T19:08:35.235456,15.01601497,0.0008032,36.9128,311.4083,308.363,51.6389,0,U,46908,999,8596,0.00040518,5.28E-05,0,6940.094,95.898,567.534,556.385,PAYLOAD,SMALL,US,11/7/2020,SRI,,3477983,205211969,0 LEMUR 2 OZARAK,1 46908U 20081D   22153.79763004  .00005284  00000-0  40518-3 0  9997,2 46908  36.9128 311.4083 0008032 308.3630  51.6389 15.01601497 85968,,,,,,,570.094,,7.578552145
2,GENERATED VIA SPACE-TRACK.ORG API,2022-06-03T02:31:39,18 SPCS,LEMUR 2 JINDRA,2020-081E,EARTH,TEME,UTC,SGP4,2022-06-02T19:09:50.627232,15.02048612,0.0008885,36.9181,310.5008,319.1557,40.8517,0,U,46909,999,8598,0.00045009,5.95E-05,0,6938.717,95.869,566.747,554.417,PAYLOAD,SMALL,US,11/7/2020,SRI,,3477983,205212217,0 LEMUR 2 JINDRA,1 46909U 20081E   22153.79850263  .00005950  00000-0  45009-3 0  9992,2 46909  36.9181 310.5008 0008885 319.1557  40.8517 15.02048612 85989,,,,,,,568.717,,7.579304096
2,GENERATED VIA SPACE-TRACK.ORG API,2022-06-03T07:16:12,18 SPCS,LEMUR 2 WALLACE,2020-081F,EARTH,TEME,UTC,SGP4,2022-06-03T03:20:09.132576,15.01908589,0.0009226,36.9166,308.5769,317.0843,42.9132,0,U,46910,999,8602,0.00039715,5.22E-05,0,6939.148,95.878,567.415,554.611,PAYLOAD,SMALL,US,11/7/2020,SRI,,3478490,205227243,0 LEMUR 2 WALLACE,1 46910U 20081F   22154.13899459  .00005221  00000-0  39715-3 0  9991,2 46910  36.9166 308.5769 0009226 317.0843  42.9132 15.01908589 86029,,,,,,,569.148,,7.579068712
2,GENERATED VIA SPACE-TRACK.ORG API,2022-06-02T23:26:12,18 SPCS,LEMUR 2 JEREMIAH,2020-081G,EARTH,TEME,UTC,SGP4,2022-06-02T18:47:06.340992,15.01905592,0.0009928,36.9141,310.3783,323.1683,36.8335,0,U,46911,999,8598,0.00042806,5.63E-05,0,6939.158,95.878,567.912,554.133,PAYLOAD,SMALL,US,11/7/2020,SRI,,3477895,205188221,0 LEMUR 2 JEREMIAH,1 46911U 20081G   22153.78271228  .00005634  00000-0  42806-3 0  9993,2 46911  36.9141 310.3783 0009928 323.1683  36.8335 15.01905592 85981,,,,,,,569.158,,7.579063251
2,GENERATED VIA SPACE-TRACK.ORG API,2022-06-03T07:16:12,18 SPCS,KSM1-A,2020-081H,EARTH,TEME,UTC,SGP4,2022-06-03T03:33:13.050144,15.00584911,0.000478,36.9021,308.0859,4.3868,164.4731,0,U,46912,999,8602,0.00017075,2.12E-05,0,6943.228,95.963,568.412,561.775,PAYLOAD,MEDIUM,LUXE,11/7/2020,SRI,,3478486,205226768,0 KSM1-A,1 46912U 20081H   22154.14806771  .00002120  00000-0  17075-3 0  9999,2 46912  36.9021 308.0859 0004780   4.3868 164.4731 15.00584911 86022,,,,,,,573.228,,7.576841567
2,GENERATED VIA SPACE-TRACK.ORG API,2022-06-03T02:31:39,18 SPCS,R2,2020-081J,EARTH,TEME,UTC,SGP4,2022-06-02T18:58:41.213856,15.00773926,0.0012055,36.9044,309.5489,317.6244,42.3565,0,U,46913,999,8873,0.00011209,1.37E-05,0,6942.646,95.95,572.88,556.141,PAYLOAD,MEDIUM,LTU,11/7/2020,SRI,,3477983,205211718,0 R2,1 46913U 20081J   22153.79075479  .00001373  00000-0  11209-3 0  9995,2 46913  36.9044 309.5489 0012055 317.6244  42.3565 15.00773926 88730,,,,,,,572.646,,7.577159143
2,GENERATED VIA SPACE-TRACK.ORG API,2022-06-03T06:36:13,18 SPCS,KSM1-B,2020-081K,EARTH,TEME,UTC,SGP4,2022-06-02T20:30:06.360192,15.00536856,0.0010257,36.9056,310.0118,325.1465,34.8598,0,U,46914,999,8525,0.0001578,1.95E-05,0,6943.377,95.966,572.364,558.12,PAYLOAD,MEDIUM,LUXE,11/7/2020,SRI,,3478155,205218507,0 KSM1-B,1 46914U 20081K   22153.85424028  .00001952  00000-0  15780-3 0  9992,2 46914  36.9056 310.0118 0010257 325.1465  34.8598 15.00536856 85256,,,,,,,573.377,,7.57676027
2,GENERATED VIA SPACE-TRACK.ORG API,2022-06-03T07:16:12,18 SPCS,SPOC,1998-067RR,EARTH,TEME,UTC,SGP4,2022-06-02T23:26:10.112352,15.94887138,0.0006135,51.6267,3.8582,243.9264,116.1112,0,U,46921,999,8969,0.00066397,0.00260541,3.76E-05,6666.766,90.289,292.721,284.541,PAYLOAD,SMALL,US,11/20/1998,TTMTR,,3478488,205226813,0 SPOC,1 46921U 98067RR  22153.97650593  .00260541  37574-4  66397-3 0  9991,2 46921  51.6267   3.8582 0006135 243.9264 116.1112 15.94887138 89691,,,,,,,296.766,,7.732346613
2,GENERATED VIA SPACE-TRACK.ORG API,2022-06-03T07:16:12,18 SPCS,NEUTRON-1,1998-067RT,EARTH,TEME,UTC,SGP4,2022-06-02T21:30:34.579584,15.94588893,0.0005986,51.6278,4.8385,243.0282,117.0114,0,U,46923,999,8970,0.00067179,0.0025938,3.72E-05,6667.597,90.305,293.453,285.471,PAYLOAD,SMALL,US,11/20/1998,TTMTR,,3478505,205226854,0 NEUTRON-1,1 46923U 98067RT  22153.89623356  .00259380  37231-4  67179-3 0  9999,2 46923  51.6278   4.8385 0005986 243.0282 117.0114 15.94588893 89701,,,,,,,297.597,,7.731864747
2,GENERATED VIA SPACE-TRACK.ORG API,2022-06-03T02:31:39,18 SPCS,DESCENT,1998-067RX,EARTH,TEME,UTC,SGP4,2022-06-02T20:42:35.898336,15.99510815,0.0007076,51.6271,3.839,250.4823,109.5423,0,U,46927,999,8963,0.00071918,0.00366105,6.75E-05,6653.912,90.028,280.485,271.069,PAYLOAD,SMALL,CA,11/20/1998,TTMTR,,3477983,205210718,0 DESCENT,1 46927U 98067RX  22153.86291549  .00366105  67524-4  71918-3 0  9993,2 46927  51.6271   3.8390 0007076 250.4823 109.5423 15.99510815 89633,,,,,,,283.912,,7.739811667
2,GENERATED VIA SPACE-TRACK.ORG API,2022-06-03T06:56:14,18 SPCS,CORVUS BC5,2020-085C,EARTH,TEME,UTC,SGP4,2022-06-03T03:12:22.267584,15.26380083,0.0014794,97.4423,291.9416,115.8479,244.3816,0,U,46931,999,8524,0.00030626,7.92E-05,0,6864.781,94.341,496.802,476.491,PAYLOAD,MEDIUM,US,11/20/2020,RLLC,,3478271,205221378,0 CORVUS BC5,1 46931U 20085C   22154.13359106  .00007917  00000-0  30626-3 0  9994,2 46931  97.4423 291.9416 0014794 115.8479 244.3816 15.26380083 85249,,,,,,,494.781,,7.620010611
2,GENERATED VIA SPACE-TRACK.ORG API,2022-06-03T06:36:13,18 SPCS,SPACEBEE-34,2020-085E,EARTH,TEME,UTC,SGP4,2022-06-03T03:15:49.752864,15.44376546,0.0005899,97.4112,294.6566,162.9511,197.0952,0,U,46933,999,8544,0.0014988,0.0006966,0,6811.348,93.242,437.231,429.195,PAYLOAD,SMALL,US,11/20/2020,RLLC,,3478117,205217560,0 SPACEBEE-34,1 46933U 20085E   22154.13599251  .00069660  00000-0  14988-2 0  9998,2 46933  97.4112 294.6566 0005899 162.9511 197.0952 15.44376546 85444,,,,,,,441.348,,7.649840582
